[{"OBJECT_NAME":"TECHNOSAT","OBJECT_ID":"2017-042E","EPOCH":"2026-03-09T21:27:07.546176","MEAN_MOTION":15.04288119,"ECCENTRICITY":0.00196291,"INCLINATION":97.4156,"RA_OF_ASC_NODE":230.4429,"ARG_OF_PERICENTER":75.0719,"MEAN_ANOMALY":285.2679,"EPHEMERIS_TYPE":0,"CLASSIFICATION_TYPE":"U","NORAD_CAT_ID":42829,"ELEMENT_SET_NO":999,"REV_AT_EPOCH":47177,"BSTAR":0.00032015047,"MEAN_MOTION_DOT":4.417e-5,"MEAN_MOTION_DDOT":0},{"OBJECT_NAME":"STARLINK-4052","OBJECT_ID":"2022-083AR","EPOCH":"2026-03-09T13:27:12.156768","MEAN_MOTION":15.08839775,"ECCENTRICITY":0.0001527,"INCLINATION":53.2163,"RA_OF_ASC_NODE":134.4606,"ARG_OF_PERICENTER":98.5147,"MEAN_ANOMALY":261.6019,"EPHEMERIS_TYPE":0,"CLASSIFICATION_TYPE":"U","NORAD_CAT_ID":53171,"ELEMENT_SET_NO":999,"REV_AT_EPOCH":20175,"BSTAR":3.1477e-5,"MEAN_MOTION_DOT":2.13e-6,"MEAN_MOTION_DDOT":0}]
